[{"OBJECT_NAME":"JILIN-1 GAOFEN 03D47","OBJECT_ID":"2022-167L","EPOCH":"2026-03-09T22:56:46.924224","MEAN_MOTION":15.31686941,"ECCENTRICITY":0.00089304,"INCLINATION":97.6835,"RA_OF_ASC_NODE":234.6581,"ARG_OF_PERICENTER":110.4031,"MEAN_ANOMALY":249.8169,"EPHEMERIS_TYPE":0,"CLASSIFICATION_TYPE":"U","NORAD_CAT_ID":54692,"ELEMENT_SET_NO":999,"REV_AT_EPOCH":18014,"BSTAR":0.00047294748,"MEAN_MOTION_DOT":0.00014417,"MEAN_MOTION_DDOT":0},{"OBJECT_NAME":"STARLINK-32082","OBJECT_ID":"2024-136T","EPOCH":"2026-03-09T08:13:59.873376","MEAN_MOTION":15.30194163,"ECCENTRICITY":0.00012632,"INCLINATION":53.1609,"RA_OF_ASC_NODE":77.1191,"ARG_OF_PERICENTER":95.4838,"MEAN_ANOMALY":264.6307,"EPHEMERIS_TYPE":0,"CLASSIFICATION_TYPE":"U","NORAD_CAT_ID":60346,"ELEMENT_SET_NO":999,"REV_AT_EPOCH":8961,"BSTAR":2.6209013e-5,"MEAN_MOTION_DOT":4.17e-6,"MEAN_MOTION_DDOT":0}]
